IRIDIUM 159             
1 43578U 18061K   25342.94747779  .00000323  00000+0  10818-3 0  9991
2 43578  86.3971 136.2512 0001978  86.6858 273.4564 14.34214259386114
IRIDIUM 180             
1 43922U 19002A   25342.80744197  .00000206  00000+0  66424-4 0  9991
2 43922  86.3966  73.1851 0001993  92.8467 267.2957 14.34216973361708
IRIDIUM 176             
1 43923U 19002B   25342.78142002  .00001951  00000+0  30539-3 0  9991
2 43923  86.6088  73.1671 0002223  99.0709 261.0760 14.72268950371239
IRIDIUM 168             
1 43924U 19002C   25342.80109870  .00000056  00000+0  12942-4 0  9995
2 43924  86.3971  73.2598 0001976  96.7996 263.3425 14.34216107361689
IRIDIUM 173             
1 43925U 19002D   25342.78841211  .00000777  00000+0  27044-3 0  9993
2 43925  86.3965  73.1615 0001876  99.2658 260.8750 14.34217251361666
IRIDIUM 169             
1 43926U 19002E   25343.08675602  .00000606  00000+0  19147-3 0  9993
2 43926  86.4218 104.6876 0001705 129.6643 230.4706 14.38615449362896
IRIDIUM 172             
1 43927U 19002F   25343.13091311  .00000406  00000+0  13799-3 0  9994
2 43927  86.3964  73.0256 0002001  91.8812 268.2613 14.34217166361720
IRIDIUM 175             
1 43928U 19002G   25343.11654750  .00001092  00000+0  16926-3 0  9992
2 43928  86.1504  15.6378 0003133  96.7949 263.3625 14.72247980371277
